{
  "type": "FeatureCollection",
  "features": [
    {
      "type": "Feature",
      "properties": {
        "norad_id": 43567,
        "name": "GSAT0220 (GALILEO 24)",
        "group": "gnss",
        "lat": 49.96283958560951,
        "lon": 116.84199390747375,
        "alt_km": 23234.11643728763,
        "timestamp": "2025-12-09T20:37:09.529389+00:00",
        "meta_object_name": "GSAT0220 (GALILEO 24)",
        "meta_object_id": "2018-060D",
        "meta_epoch": "2025-12-07T07:49:54.342624",
        "meta_mean_motion": 1.70475454,
        "meta_eccentricity": 0.00061757,
        "meta_inclination": 57.2312,
        "meta_ra_of_asc_node": 346.9681,
        "meta_arg_of_pericenter": 282.9528,
        "meta_mean_anomaly": 76.9979,
        "meta_ephemeris_type": 0,
        "meta_classification_type": "U",
        "meta_norad_cat_id": 43567,
        "meta_element_set_no": 999,
        "meta_rev_at_epoch": 4590,
        "meta_bstar": 0,
        "meta_mean_motion_dot": -8.3e-07,
        "meta_mean_motion_ddot": 0,
        "tle_line1": "1 43567U 18060D   25341.32632341 -.00000083  00000+0  00000+0 0  9999",
        "tle_line2": "2 43567  57.2312 346.9681 0006175 282.9528  76.9979  1.70475454 45901"
      },
      "geometry": {
        "type": "Point",
        "coordinates": [
          116.84199390747375,
          49.96283958560951
        ]
      }
    },
    {
      "type": "Feature",
      "properties": {
        "norad_id": 43581,
        "name": "BEIDOU-3 M5 (C23)",
        "group": "gnss",
        "lat": -15.607243257634627,
        "lon": 20.428876295141436,
        "alt_km": 21535.801445377958,
        "timestamp": "2025-12-09T20:37:09.529401+00:00",
        "meta_object_name": "BEIDOU-3 M5 (C23)",
        "meta_object_id": "2018-062A",
        "meta_epoch": "2025-12-07T09:56:06.099936",
        "meta_mean_motion": 1.86228656,
        "meta_eccentricity": 0.00021227,
        "meta_inclination": 54.0892,
        "meta_ra_of_asc_node": 188.8244,
        "meta_arg_of_pericenter": 353.0314,
        "meta_mean_anomaly": 7.0363,
        "meta_ephemeris_type": 0,
        "meta_classification_type": "U",
        "meta_norad_cat_id": 43581,
        "meta_element_set_no": 999,
        "meta_rev_at_epoch": 5006,
        "meta_bstar": 0,
        "meta_mean_motion_dot": 5.9e-07,
        "meta_mean_motion_ddot": 0,
        "tle_line1": "1 43581U 18062A   25341.41395949  .00000059  00000+0  00000+0 0  9999",
        "tle_line2": "2 43581  54.0892 188.8244 0002122 353.0314   7.0363  1.86228656 50066"
      },
      "geometry": {
        "type": "Point",
        "coordinates": [
          20.428876295141436,
          -15.607243257634627
        ]
      }
    },
    {
      "type": "Feature",
      "properties": {
        "norad_id": 43582,
        "name": "BEIDOU-3 M6 (C24)",
        "group": "gnss",
        "lat": -49.031849176487576,
        "lon": 132.14861144498695,
        "alt_km": 21542.86174003626,
        "timestamp": "2025-12-09T20:37:09.529412+00:00",
        "meta_object_name": "BEIDOU-3 M6 (C24)",
        "meta_object_id": "2018-062B",
        "meta_epoch": "2025-12-07T19:32:10.570272",
        "meta_mean_motion": 1.86229692,
        "meta_eccentricity": 0.00077761,
        "meta_inclination": 54.0886,
        "meta_ra_of_asc_node": 188.7999,
        "meta_arg_of_pericenter": 46.2812,
        "meta_mean_anomaly": 313.8511,
        "meta_ephemeris_type": 0,
        "meta_classification_type": "U",
        "meta_norad_cat_id": 43582,
        "meta_element_set_no": 999,
        "meta_rev_at_epoch": 5007,
        "meta_bstar": 0,
        "meta_mean_motion_dot": 5.5e-07,
        "meta_mean_motion_ddot": 0,
        "tle_line1": "1 43582U 18062B   25341.81401123  .00000055  00000+0  00000+0 0  9992",
        "tle_line2": "2 43582  54.0886 188.7999 0007776  46.2812 313.8511  1.86229692 50075"
      },
      "geometry": {
        "type": "Point",
        "coordinates": [
          132.14861144498695,
          -49.031849176487576
        ]
      }
    },
    {
      "type": "Feature",
      "properties": {
        "norad_id": 43602,
        "name": "BEIDOU-3 M12 (C26)",
        "group": "gnss",
        "lat": -21.716023252464844,
        "lon": 170.74812390489325,
        "alt_km": 21521.697942020877,
        "timestamp": "2025-12-09T20:37:09.529425+00:00",
        "meta_object_name": "BEIDOU-3 M12 (C26)",
        "meta_object_id": "2018-067A",
        "meta_epoch": "2025-12-07T18:02:34.116000",
        "meta_mean_motion": 1.86227677,
        "meta_eccentricity": 0.00091651,
        "meta_inclination": 54.1832,
        "meta_ra_of_asc_node": 187.5325,
        "meta_arg_of_pericenter": 40.8071,
        "meta_mean_anomaly": 319.3279,
        "meta_ephemeris_type": 0,
        "meta_classification_type": "U",
        "meta_norad_cat_id": 43602,
        "meta_element_set_no": 999,
        "meta_rev_at_epoch": 4955,
        "meta_bstar": 0,
        "meta_mean_motion_dot": 5.6e-07,
        "meta_mean_motion_ddot": 0,
        "tle_line1": "1 43602U 18067A   25341.75178375  .00000056  00000+0  00000+0 0  9994",
        "tle_line2": "2 43602  54.1832 187.5325 0009165  40.8071 319.3279  1.86227677 49555"
      },
      "geometry": {
        "type": "Point",
        "coordinates": [
          170.74812390489325,
          -21.716023252464844
        ]
      }
    },
    {
      "type": "Feature",
      "properties": {
        "norad_id": 43603,
        "name": "BEIDOU-3 M11 (C25)",
        "group": "gnss",
        "lat": -46.102599345311916,
        "lon": 56.085912353726386,
        "alt_km": 21547.68752580404,
        "timestamp": "2025-12-09T20:37:09.529436+00:00",
        "meta_object_name": "BEIDOU-3 M11 (C25)",
        "meta_object_id": "2018-067B",
        "meta_epoch": "2025-12-07T08:23:01.607424",
        "meta_mean_motion": 1.86227152,
        "meta_eccentricity": 0.0005581,
        "meta_inclination": 54.1802,
        "meta_ra_of_asc_node": 187.5102,
        "meta_arg_of_pericenter": 36.6822,
        "meta_mean_anomaly": 323.425,
        "meta_ephemeris_type": 0,
        "meta_classification_type": "U",
        "meta_norad_cat_id": 43603,
        "meta_element_set_no": 999,
        "meta_rev_at_epoch": 4957,
        "meta_bstar": 0,
        "meta_mean_motion_dot": 6e-07,
        "meta_mean_motion_ddot": 0,
        "tle_line1": "1 43603U 18067B   25341.34932416  .00000060  00000+0  00000+0 0  9999",
        "tle_line2": "2 43603  54.1802 187.5102 0005581  36.6822 323.4250  1.86227152 49576"
      },
      "geometry": {
        "type": "Point",
        "coordinates": [
          56.085912353726386,
          -46.102599345311916
        ]
      }
    },
    {
      "type": "Feature",
      "properties": {
        "norad_id": 43622,
        "name": "BEIDOU-3 M13 (C32)",
        "group": "gnss",
        "lat": -56.434891334973614,
        "lon": -17.872966142933166,
        "alt_km": 21520.17900798821,
        "timestamp": "2025-12-09T20:37:09.529447+00:00",
        "meta_object_name": "BEIDOU-3 M13 (C32)",
        "meta_object_id": "2018-072A",
        "meta_epoch": "2025-12-09T10:53:18.929184",
        "meta_mean_motion": 1.86230678,
        "meta_eccentricity": 0.00056167,
        "meta_inclination": 56.4562,
        "meta_ra_of_asc_node": 68.9299,
        "meta_arg_of_pericenter": 299.0719,
        "meta_mean_anomaly": 60.8948,
        "meta_ephemeris_type": 0,
        "meta_classification_type": "U",
        "meta_norad_cat_id": 43622,
        "meta_element_set_no": 999,
        "meta_rev_at_epoch": 4912,
        "meta_bstar": 0,
        "meta_mean_motion_dot": -4.9e-07,
        "meta_mean_motion_ddot": 0,
        "tle_line1": "1 43622U 18072A   25343.45369131 -.00000049  00000+0  00000+0 0  9996",
        "tle_line2": "2 43622  56.4562  68.9299 0005616 299.0719  60.8948  1.86230678 49127"
      },
      "geometry": {
        "type": "Point",
        "coordinates": [
          -17.872966142933166,
          -56.434891334973614
        ]
      }
    },
    {
      "type": "Feature",
      "properties": {
        "norad_id": 43623,
        "name": "BEIDOU-3 M14 (C33)",
        "group": "gnss",
        "lat": 1.6905711897397326,
        "lon": 70.03947454921601,
        "alt_km": 21520.155915727653,
        "timestamp": "2025-12-09T20:37:09.529461+00:00",
        "meta_object_name": "BEIDOU-3 M14 (C33)",
        "meta_object_id": "2018-072B",
        "meta_epoch": "2025-12-09T07:39:35.322912",
        "meta_mean_motion": 1.86230627,
        "meta_eccentricity": 0.0003205,
        "meta_inclination": 56.458,
        "meta_ra_of_asc_node": 68.9278,
        "meta_arg_of_pericenter": 335.7988,
        "meta_mean_anomaly": 24.209,
        "meta_ephemeris_type": 0,
        "meta_classification_type": "U",
        "meta_norad_cat_id": 43623,
        "meta_element_set_no": 999,
        "meta_rev_at_epoch": 4911,
        "meta_bstar": 0,
        "meta_mean_motion_dot": -4.8e-07,
        "meta_mean_motion_ddot": 0,
        "tle_line1": "1 43623U 18072B   25343.31915883 -.00000048  00000+0  00000+0 0  9992",
        "tle_line2": "2 43623  56.4580  68.9278 0003205 335.7988  24.2090  1.86230627 49118"
      },
      "geometry": {
        "type": "Point",
        "coordinates": [
          70.03947454921601,
          1.6905711897397326
        ]
      }
    }
  ]
}